NORAD_CAT_ID,OBJECT_NAME,OBJECT_TYPE,EPOCH,MEAN_MOTION,ECCENTRICITY,INCLINATION,RA_OF_ASC_NODE,ARG_OF_PERICENTER,MEAN_ANOMALY,BSTAR,MEAN_MOTION_DOT,MEAN_MOTION_DDOT,TLE_LINE0,TLE_LINE1,TLE_LINE2,SEMIMAJOR_AXIS,PERIOD,APOGEE,PERIGEE,DECAYED
50173.0,STARLINK-3289,PAYLOAD,2022-04-25 14:00:01,15.20828842,0.0005521,53.2173,108.0443,272.2661,135.5257,-0.013886,-0.00298423,0.0,0 STARLINK-3289,1 50173U 21125T   22115.58334491 -.00298423  00000-0 -13886-1 0  9992,2 50173  53.2173 108.0443 0005521 272.2661 135.5257 15.20828842  3627,6881.476,94.685,507.141,499.542,0.0
50173.0,STARLINK-3289,PAYLOAD,2022-04-25 22:00:00,15.20622946,0.0005646,53.2173,106.5196,278.9492,154.7186,-0.014005,-0.00299146,0.0,0 STARLINK-3289,1 50173U 21125T   22115.91667824 -.00299146  00000-0 -14005-1 0  9995,2 50173  53.2173 106.5196 0005646 278.9492 154.7186 15.20622946 20213,6882.097,94.698,507.848,500.077,0.0
50173.0,STARLINK-3289,PAYLOAD,2022-04-26 14:00:01,15.20212853,0.0005196,53.2173,103.4761,268.9797,215.7572,-0.014376,-0.00303204,0.0,0 STARLINK-3289,1 50173U 21125T   22116.58335648 -.00303204  00000-0 -14376-1 0  9997,2 50173  53.2173 103.4761 0005196 268.9797 215.7572 15.20212853  3630,6883.335,94.724,508.777,501.62300000000016,0.0
50173.0,STARLINK-3289,PAYLOAD,2022-04-26 22:00:00,15.20008032,0.0004214,53.2174,101.9532,267.173,242.6329,-0.014611,-0.00306136,0.0,0 STARLINK-3289,1 50173U 21125T   22116.91667824 -.00306136  00000-0 -14611-1 0  9997,2 50173  53.2174 101.9532 0004214 267.1730 242.6329 15.20008032  3606,6883.953,94.736,508.719,502.917,0.0
50173.0,STARLINK-3289,PAYLOAD,2022-04-27 06:00:00,15.198000699999998,0.0006769,53.2172,100.4338,283.1642,251.5262,-0.01462,-0.00304703,0.0,0 STARLINK-3289,1 50173U 21125T   22117.25001157 -.00304703  00000-0 -14620-1 0  9994,2 50173  53.2172 100.4338 0006769 283.1642 251.5262 15.19800070 20412,6884.581,94.749,511.106,501.786,0.0
50173.0,STARLINK-3289,PAYLOAD,2022-04-27 14:00:01,15.19594511,0.0005237999999999,53.2173,98.9122,276.5182,282.8724,-0.014756,-0.00305553,0.0,0 STARLINK-3289,1 50173U 21125T   22117.58335648 -.00305553  00000-0 -14756-1 0  9999,2 50173  53.2173  98.9122 0005238 276.5182 282.8724 15.19594511  3646,6885.2019999999975,94.762,510.674,503.461,0.0
50173.0,STARLINK-3289,PAYLOAD,2022-04-28 14:00:01,15.18973838,0.0005225,53.2173,94.3528,272.5921,359.1596,-0.014855,-0.00302235,0.0,0 STARLINK-3289,1 50173U 21125T   22118.58334491 -.00302235  00000-0 -14855-1 0  9999,2 50173  53.2173  94.3528 0005225 272.5921 359.1596 15.18973838 20612,6887.078,94.801,512.5409999999998,505.344,0.0
50173.0,STARLINK-3289,PAYLOAD,2022-04-29 14:00:01,15.18353804,0.0005428999999999,53.2173,89.7976,275.2162,66.7299,-0.014908,-0.00298092,0.0,0 STARLINK-3289,1 50173U 21125T   22119.58334491 -.00298092  00000-0 -14908-1 0  9994,2 50173  53.2173  89.7976 0005429 275.2162  66.7299 15.18353804  3639,6888.9519999999975,94.84,514.557,507.077,0.0
50173.0,STARLINK-3289,PAYLOAD,2022-04-29 22:00:00,15.18145534,0.0005614,53.2175,88.2795,280.4318,84.4175,-0.014701,-0.00292429,0.0,0 STARLINK-3289,1 50173U 21125T   22119.91667824 -.00292429  00000-0 -14701-1 0  9999,2 50173  53.2175  88.2795 0005614 280.4318  84.4175 15.18145534 20820,6889.581999999999,94.853,515.315,507.58,0.0
50173.0,STARLINK-3289,PAYLOAD,2022-04-30 14:00:01,15.17695104,0.0006692,53.2179,85.2374,276.5954,133.3415,-0.012081,-0.00239042,0.0,0 STARLINK-3289,1 50173U 21125T   22120.58334491 -.00239042  00000-0 -12081-1 0  9996,2 50173  53.2179  85.2374 0006692 276.5954 133.3415 15.17695104  3591,6890.946,94.881,517.422,508.199,0.0
50173.0,STARLINK-3289,PAYLOAD,2022-04-30 22:00:00,15.17454105,0.0007111,53.2177,83.7203,276.715,155.4004,-0.0095226,-0.00188486,0.0,0 STARLINK-3289,1 50173U 21125T   22120.91667824 -.00188486  00000-0 -95226-2 0  9990,2 50173  53.2177  83.7203 0007111 276.7150 155.4004 15.17454105 20974,6891.675,94.896,518.441,508.639,0.0
50173.0,STARLINK-3289,PAYLOAD,2022-05-01 06:00:00,15.17255959,0.0006104,53.2183,82.2066,275.6742,178.3485,-0.010299,-0.0020225,0.0,0 STARLINK-3289,1 50173U 21125T   22121.25001157 -.00202250  00000-0 -10299-1 0  9991,2 50173  53.2183  82.2066 0006104 275.6742 178.3485 15.17255959 21028,6892.275,94.908,518.347,509.9330000000001,0.0
50173.0,STARLINK-3289,PAYLOAD,2022-05-01 14:00:01,15.17120678,0.0005194,53.2174,80.7004,276.2793,199.3646,-0.015761,-0.00303877,0.0,0 STARLINK-3289,1 50173U 21125T   22121.58334491 -.00303877  00000-0 -15761-1 0  9993,2 50173  53.2174  80.7004 0005194 276.2793 199.3646 15.17120678  3610,6892.685,94.917,518.13,510.97,0.0
50173.0,STARLINK-3289,PAYLOAD,2022-05-01 22:00:01,15.16880575,0.0007168999999999,53.2179,79.1753,276.255,220.8918,-0.013197,-0.00254552,0.0,0 STARLINK-3289,1 50173U 21125T   22121.91668981 -.00254552  00000-0 -13197-1 0  9990,2 50173  53.2179  79.1753 0007169 276.2550 220.8918 15.16880575 21129,6893.4119999999975,94.932,520.219,510.335,0.0
50173.0,STARLINK-3289,PAYLOAD,2022-05-02 14:00:01,15.16503019,0.0005198,53.2174,76.1582,273.2236,265.926,-0.016191,-0.00306569,0.0,0 STARLINK-3289,1 50173U 21125T   22122.58334491 -.00306569  00000-0 -16191-1 0  9993,2 50173  53.2174  76.1582 0005198 273.2236 265.9260 15.16503019 21225,6894.556,94.955,520.005,512.8380000000002,0.0
50173.0,STARLINK-3289,PAYLOAD,2022-05-02 22:00:01,15.16217516,0.000672,53.2183,74.6346,275.4777,284.4546,-0.0099202,-0.00189472,0.0,0 STARLINK-3289,1 50173U 21125T   22122.91668981 -.00189472  00000-0 -99202-2 0  9991,2 50173  53.2183  74.6346 0006720 275.4777 284.4546 15.16217516  3599,6895.422,94.973,521.92,512.653,0.0
50173.0,STARLINK-3289,PAYLOAD,2022-05-03 14:00:01,15.15882779,0.0004738,53.2175,71.6203,273.2752,327.1514,-0.01636,-0.00304388,0.0,0 STARLINK-3289,1 50173U 21125T   22123.58334491 -.00304388  00000-0 -16360-1 0  9999,2 50173  53.2175  71.6203 0004738 273.2752 327.1514 15.15882779  3627,6896.437,94.994,521.569,515.034,0.0
50173.0,STARLINK-3289,PAYLOAD,2022-05-03 22:00:00,15.15642494,0.0006584,53.2182,70.0982,273.7629,346.6168,-0.013604,-0.00253284,0.0,0 STARLINK-3289,1 50173U 21125T   22123.91667824 -.00253284  00000-0 -13604-1 0  9991,2 50173  53.2182  70.0982 0006584 273.7629 346.6168 15.15642494 21428,6897.166,95.009,523.572,514.49,0.0
50173.0,STARLINK-3289,PAYLOAD,2022-05-04 14:00:01,15.15261533,0.0005473,53.2175,67.0868,273.4907,25.9833,-0.016354,-0.00299198,0.0,0 STARLINK-3289,1 50173U 21125T   22124.58334491 -.00299198  00000-0 -16354-1 0  9995,2 50173  53.2175  67.0868 0005473 273.4907  25.9833 15.15261533 21529,6898.321999999999,95.033,523.962,516.411,0.0
50173.0,STARLINK-3289,PAYLOAD,2022-05-04 22:00:01,15.15054388,0.0006412999999999,53.2177,65.5766,281.5081,37.2157,-0.01626,-0.00295928,0.0,0 STARLINK-3289,1 50173U 21125T   22124.91668981 -.00295928  00000-0 -16260-1 0  9999,2 50173  53.2177  65.5766 0006413 281.5081  37.2157 15.15054388  3623,6898.95,95.046,525.24,516.391,0.0
50173.0,STARLINK-3289,PAYLOAD,2022-05-05 14:00:01,15.14613723,0.0005882999999999,53.2185,62.5495,276.72,79.5894,-0.01401,-0.0025329,0.0,0 STARLINK-3289,1 50173U 21125T   22125.58334491 -.00253290  00000-0 -14010-1 0  9996,2 50173  53.2185  62.5495 0005883 276.7200  79.5894 15.14613723  3582,6900.2890000000025,95.074,526.2130000000002,518.094,0.0
50173.0,STARLINK-3289,PAYLOAD,2022-05-05 16:00:00,15.14592863,0.0005626,53.2179,62.1763,277.7054,173.2209,-0.016663,-0.00299131,0.0,0 STARLINK-3289,1 50173U 21125T   22125.66667824 -.00299131  00000-0 -16663-1 0  9994,2 50173  53.2179  62.1763 0005626 277.7054 173.2209 15.14592863 21697,6900.352,95.075,526.099,518.335,0.0
50173.0,STARLINK-3289,PAYLOAD,2022-05-05 22:00:00,15.14415356,0.0006787,53.2184,61.0384,270.5944,104.1569,-0.014804,-0.00265733,0.0,0 STARLINK-3289,1 50173U 21125T   22125.91667824 -.00265733  00000-0 -14804-1 0  9998,2 50173  53.2184  61.0384 0006787 270.5944 104.1569 15.14415356  3589,6900.891,95.086,527.44,518.072,0.0
50173.0,STARLINK-3289,PAYLOAD,2022-05-06 14:00:01,15.14024028,0.000528,53.2175,58.0328,272.8783,137.9999,-0.016771,-0.00296356,0.0,0 STARLINK-3289,1 50173U 21125T   22126.58334491 -.00296356  00000-0 -16771-1 0  9993,2 50173  53.2175  58.0328 0005280 272.8783 137.9999 15.14024028  3624,6902.08,95.111,527.589,520.3009999999998,0.0
50173.0,STARLINK-3289,PAYLOAD,2022-05-06 22:00:00,15.13820777,0.0004917,53.2177,56.526,281.1666,147.4105,-0.017156,-0.00301199,0.0,0 STARLINK-3289,1 50173U 21125T   22126.91667824 -.00301199  00000-0 -17156-1 0  9999,2 50173  53.2177  56.5260 0004917 281.1666 147.4105 15.13820777 21880,6902.698,95.124,527.957,521.169,0.0
50173.0,STARLINK-3289,PAYLOAD,2022-05-07 14:00:01,15.13407474,0.0004914,53.2175,53.5123,275.4811,187.7543,-0.017276,-0.00299849,0.0,0 STARLINK-3289,1 50173U 21125T   22127.58334491 -.00299849  00000-0 -17276-1 0  9995,2 50173  53.2175  53.5123 0004914 275.4811 187.7543 15.13407474  3639,6903.955,95.15,529.212,522.427,0.0
50173.0,STARLINK-3289,PAYLOAD,2022-05-07 22:00:00,15.13203612,0.0004875,53.2176,52.007,282.1057,198.086,-0.017656,-0.00304492,0.0,0 STARLINK-3289,1 50173U 21125T   22127.91667824 -.00304492  00000-0 -17656-1 0  9994,2 50173  53.2176  52.0070 0004875 282.1057 198.0860 15.13203612  3622,6904.575,95.162,529.806,523.0740000000002,0.0
50173.0,STARLINK-3289,PAYLOAD,2022-05-08 06:00:00,15.12993447,0.0005433,53.2174,50.5027,268.9086,227.9932,-0.017307,-0.00297057,0.0,0 STARLINK-3289,1 50173U 21125T   22128.25001157 -.00297057  00000-0 -17307-1 0  9994,2 50173  53.2174  50.5027 0005433 268.9086 227.9932 15.12993447 22084,6905.214,95.176,530.831,523.327,0.0
50173.0,STARLINK-3289,PAYLOAD,2022-05-08 14:00:01,15.12789833,0.0004598,53.2174,48.9961,277.0298,236.3341,-0.017725,-0.00302229,0.0,0 STARLINK-3289,1 50173U 21125T   22128.58334491 -.00302229  00000-0 -17725-1 0  9992,2 50173  53.2174  48.9961 0004598 277.0298 236.3341 15.12789833  3628,6905.834,95.188,530.874,524.523,0.0
